STARLINK-35551          
1 66200U 25243Z   25310.78078973 -.00596150  00000+0 -35277-2 0  9993
2 66200  53.1524 100.6174 0000332 214.1870 145.9131 15.78961149  1776
STARLINK-35543          
1 66201U 25243AA  25310.78119373 -.00470266  00000+0 -27316-2 0  9998
2 66201  53.1528 100.6193 0001656  99.7166 260.4043 15.79036052  1779
STARLINK-35534          
1 66202U 25243AB  25310.33823251  .00532735  00000+0  23744-2 0  9996
2 66202  53.1524 102.8358 0008596 242.6115 117.4034 15.82301986  1705
STARLINK-35548          
1 66203U 25243AC  25310.71860966 -.00391793  00000+0 -22206-2 0  9994
2 66203  53.1524 100.9413 0001851  33.7904 326.3236 15.79369744  1762
STARLINK-35490          
1 66204U 25243AD  25310.78263042 -.00400606  00000+0 -23029-2 0  9992
2 66204  53.1527 100.6299 0001984  40.5674 319.5496 15.79081615  1773
GRAVITY-1 R/B           
1 66205U 25226E   25310.69062711  .00049091  29875-5  43360-3 0  9997
2 66205  97.7928  27.2242 0160313 302.8812  55.7098 15.54017096  1878
STARLINK-35748          
1 66206U 25244A   25310.83336806 -.01136672  00000+0 -54793-2 0  9992
2 66206  53.1543  87.5743 0000842  48.0294 236.4818 15.84262684  2491
STARLINK-35747          
1 66207U 25244B   25310.83336806 -.01130765  00000+0 -54394-2 0  9997
2 66207  53.1543  87.5710 0000871  42.7559 243.3057 15.84293597  2492
STARLINK-35751          
1 66208U 25244C   25310.83336806 -.01138976  00000+0 -54791-2 0  9991
2 66208  53.1542  87.5662 0000775  43.3992 245.0633 15.84310626  2604
STARLINK-35750          
1 66209U 25244D   25310.83336806 -.01166986  00000+0 -56175-2 0  9992
2 66209  53.1540  87.5564 0000786  55.4426 237.5746 15.84356198  2573
STARLINK-35740          
1 66210U 25244E   25310.83336806 -.01166171  00000+0 -56184-2 0  9990
2 66210  53.1541  87.5606 0000778  44.3901 246.5474 15.84336800  2441
STARLINK-35723          
1 66211U 25244F   25310.83336806 -.01180664  00000+0 -56819-2 0  9999
2 66211  53.1541  87.5520 0000855  51.0116 243.9129 15.84389450  2498
