CCSDS_OMM_VERS = 2.0
CREATION_DATE  = 
ORIGINATOR     = 

OBJECT_NAME    = STARLINK-35551
OBJECT_ID      = 2025-243Z
CENTER_NAME    = EARTH
REF_FRAME      = TEME
TIME_SYSTEM    = UTC
MEAN_ELEMENT_THEORY = SGP/SGP4

EPOCH          = 2025-11-06T18:44:20.232672
MEAN_MOTION    = 15.78961149
ECCENTRICITY   = .0000332
INCLINATION    = 53.1524
RA_OF_ASC_NODE = 100.6174
ARG_OF_PERICENTER = 214.1870
MEAN_ANOMALY   = 145.9131

EPHEMERIS_TYPE = 0
CLASSIFICATION_TYPE = U
NORAD_CAT_ID   = 66200
ELEMENT_SET_NO = 999
REV_AT_EPOCH   = 177
BSTAR          = -.35277E-2
MEAN_MOTION_DOT = -.59615E-2
MEAN_MOTION_DDOT = 0

CCSDS_OMM_VERS = 2.0
CREATION_DATE  = 
ORIGINATOR     = 

OBJECT_NAME    = STARLINK-35543
OBJECT_ID      = 2025-243AA
CENTER_NAME    = EARTH
REF_FRAME      = TEME
TIME_SYSTEM    = UTC
MEAN_ELEMENT_THEORY = SGP/SGP4

EPOCH          = 2025-11-06T18:44:55.138272
MEAN_MOTION    = 15.79036052
ECCENTRICITY   = .0001656
INCLINATION    = 53.1528
RA_OF_ASC_NODE = 100.6193
ARG_OF_PERICENTER = 99.7166
MEAN_ANOMALY   = 260.4043

EPHEMERIS_TYPE = 0
CLASSIFICATION_TYPE = U
NORAD_CAT_ID   = 66201
ELEMENT_SET_NO = 999
REV_AT_EPOCH   = 177
BSTAR          = -.27316E-2
MEAN_MOTION_DOT = -.470266E-2
MEAN_MOTION_DDOT = 0

CCSDS_OMM_VERS = 2.0
CREATION_DATE  = 
ORIGINATOR     = 

OBJECT_NAME    = STARLINK-35534
OBJECT_ID      = 2025-243AB
CENTER_NAME    = EARTH
REF_FRAME      = TEME
TIME_SYSTEM    = UTC
MEAN_ELEMENT_THEORY = SGP/SGP4

EPOCH          = 2025-11-06T08:07:03.288864
MEAN_MOTION    = 15.82301986
ECCENTRICITY   = .0008596
INCLINATION    = 53.1524
RA_OF_ASC_NODE = 102.8358
ARG_OF_PERICENTER = 242.6115
MEAN_ANOMALY   = 117.4034

EPHEMERIS_TYPE = 0
CLASSIFICATION_TYPE = U
NORAD_CAT_ID   = 66202
ELEMENT_SET_NO = 999
REV_AT_EPOCH   = 170
BSTAR          = .23744E-2
MEAN_MOTION_DOT = .532735E-2
MEAN_MOTION_DDOT = 0

CCSDS_OMM_VERS = 2.0
CREATION_DATE  = 
ORIGINATOR     = 

OBJECT_NAME    = STARLINK-35548
OBJECT_ID      = 2025-243AC
CENTER_NAME    = EARTH
REF_FRAME      = TEME
TIME_SYSTEM    = UTC
MEAN_ELEMENT_THEORY = SGP/SGP4

EPOCH          = 2025-11-06T17:14:47.874624
MEAN_MOTION    = 15.79369744
ECCENTRICITY   = .0001851
INCLINATION    = 53.1524
RA_OF_ASC_NODE = 100.9413
ARG_OF_PERICENTER = 33.7904
MEAN_ANOMALY   = 326.3236

EPHEMERIS_TYPE = 0
CLASSIFICATION_TYPE = U
NORAD_CAT_ID   = 66203
ELEMENT_SET_NO = 999
REV_AT_EPOCH   = 176
BSTAR          = -.22206E-2
MEAN_MOTION_DOT = -.391793E-2
MEAN_MOTION_DDOT = 0

CCSDS_OMM_VERS = 2.0
CREATION_DATE  = 
ORIGINATOR     = 

OBJECT_NAME    = STARLINK-35490
OBJECT_ID      = 2025-243AD
CENTER_NAME    = EARTH
REF_FRAME      = TEME
TIME_SYSTEM    = UTC
MEAN_ELEMENT_THEORY = SGP/SGP4

EPOCH          = 2025-11-06T18:46:59.268288
MEAN_MOTION    = 15.79081615
ECCENTRICITY   = .0001984
INCLINATION    = 53.1527
RA_OF_ASC_NODE = 100.6299
ARG_OF_PERICENTER = 40.5674
MEAN_ANOMALY   = 319.5496

EPHEMERIS_TYPE = 0
CLASSIFICATION_TYPE = U
NORAD_CAT_ID   = 66204
ELEMENT_SET_NO = 999
REV_AT_EPOCH   = 177
BSTAR          = -.23029E-2
MEAN_MOTION_DOT = -.400606E-2
MEAN_MOTION_DDOT = 0

CCSDS_OMM_VERS = 2.0
CREATION_DATE  = 
ORIGINATOR     = 

OBJECT_NAME    = GRAVITY-1 R/B
OBJECT_ID      = 2025-226E
CENTER_NAME    = EARTH
REF_FRAME      = TEME
TIME_SYSTEM    = UTC
MEAN_ELEMENT_THEORY = SGP/SGP4

EPOCH          = 2025-11-06T16:34:30.182304
MEAN_MOTION    = 15.54017096
ECCENTRICITY   = .0160313
INCLINATION    = 97.7928
RA_OF_ASC_NODE = 27.2242
ARG_OF_PERICENTER = 302.8812
MEAN_ANOMALY   = 55.7098

EPHEMERIS_TYPE = 0
CLASSIFICATION_TYPE = U
NORAD_CAT_ID   = 66205
ELEMENT_SET_NO = 999
REV_AT_EPOCH   = 187
BSTAR          = .4336E-3
MEAN_MOTION_DOT = .49091E-3
MEAN_MOTION_DDOT = .29875E-5

CCSDS_OMM_VERS = 2.0
CREATION_DATE  = 
ORIGINATOR     = 

OBJECT_NAME    = STARLINK-35748
OBJECT_ID      = 2025-244A
CENTER_NAME    = EARTH
REF_FRAME      = TEME
TIME_SYSTEM    = UTC
MEAN_ELEMENT_THEORY = SGP/SGP4

EPOCH          = 2025-11-06T20:00:03.000384
MEAN_MOTION    = 15.84262684
ECCENTRICITY   = .0000842
INCLINATION    = 53.1543
RA_OF_ASC_NODE = 87.5743
ARG_OF_PERICENTER = 48.0294
MEAN_ANOMALY   = 236.4818

EPHEMERIS_TYPE = 0
CLASSIFICATION_TYPE = U
NORAD_CAT_ID   = 66206
ELEMENT_SET_NO = 999
REV_AT_EPOCH   = 249
BSTAR          = -.54793E-2
MEAN_MOTION_DOT = -.1136672E-1
MEAN_MOTION_DDOT = 0

CCSDS_OMM_VERS = 2.0
CREATION_DATE  = 
ORIGINATOR     = 

OBJECT_NAME    = STARLINK-35747
OBJECT_ID      = 2025-244B
CENTER_NAME    = EARTH
REF_FRAME      = TEME
TIME_SYSTEM    = UTC
MEAN_ELEMENT_THEORY = SGP/SGP4

EPOCH          = 2025-11-06T20:00:03.000384
MEAN_MOTION    = 15.84293597
ECCENTRICITY   = .0000871
INCLINATION    = 53.1543
RA_OF_ASC_NODE = 87.5710
ARG_OF_PERICENTER = 42.7559
MEAN_ANOMALY   = 243.3057

EPHEMERIS_TYPE = 0
CLASSIFICATION_TYPE = U
NORAD_CAT_ID   = 66207
ELEMENT_SET_NO = 999
REV_AT_EPOCH   = 249
BSTAR          = -.54394E-2
MEAN_MOTION_DOT = -.1130765E-1
MEAN_MOTION_DDOT = 0

CCSDS_OMM_VERS = 2.0
CREATION_DATE  = 
ORIGINATOR     = 

OBJECT_NAME    = STARLINK-35751
OBJECT_ID      = 2025-244C
CENTER_NAME    = EARTH
REF_FRAME      = TEME
TIME_SYSTEM    = UTC
MEAN_ELEMENT_THEORY = SGP/SGP4

EPOCH          = 2025-11-06T20:00:03.000384
MEAN_MOTION    = 15.84310626
ECCENTRICITY   = .0000775
INCLINATION    = 53.1542
RA_OF_ASC_NODE = 87.5662
ARG_OF_PERICENTER = 43.3992
MEAN_ANOMALY   = 245.0633

EPHEMERIS_TYPE = 0
CLASSIFICATION_TYPE = U
NORAD_CAT_ID   = 66208
ELEMENT_SET_NO = 999
REV_AT_EPOCH   = 260
BSTAR          = -.54791E-2
MEAN_MOTION_DOT = -.1138976E-1
MEAN_MOTION_DDOT = 0

CCSDS_OMM_VERS = 2.0
CREATION_DATE  = 
ORIGINATOR     = 

OBJECT_NAME    = STARLINK-35750
OBJECT_ID      = 2025-244D
CENTER_NAME    = EARTH
REF_FRAME      = TEME
TIME_SYSTEM    = UTC
MEAN_ELEMENT_THEORY = SGP/SGP4

EPOCH          = 2025-11-06T20:00:03.000384
MEAN_MOTION    = 15.84356198
ECCENTRICITY   = .0000786
INCLINATION    = 53.1540
RA_OF_ASC_NODE = 87.5564
ARG_OF_PERICENTER = 55.4426
MEAN_ANOMALY   = 237.5746

EPHEMERIS_TYPE = 0
CLASSIFICATION_TYPE = U
NORAD_CAT_ID   = 66209
ELEMENT_SET_NO = 999
REV_AT_EPOCH   = 257
BSTAR          = -.56175E-2
MEAN_MOTION_DOT = -.1166986E-1
MEAN_MOTION_DDOT = 0

CCSDS_OMM_VERS = 2.0
CREATION_DATE  = 
ORIGINATOR     = 

OBJECT_NAME    = STARLINK-35740
OBJECT_ID      = 2025-244E
CENTER_NAME    = EARTH
REF_FRAME      = TEME
TIME_SYSTEM    = UTC
MEAN_ELEMENT_THEORY = SGP/SGP4

EPOCH          = 2025-11-06T20:00:03.000384
MEAN_MOTION    = 15.84336800
ECCENTRICITY   = .0000778
INCLINATION    = 53.1541
RA_OF_ASC_NODE = 87.5606
ARG_OF_PERICENTER = 44.3901
MEAN_ANOMALY   = 246.5474

EPHEMERIS_TYPE = 0
CLASSIFICATION_TYPE = U
NORAD_CAT_ID   = 66210
ELEMENT_SET_NO = 999
REV_AT_EPOCH   = 244
BSTAR          = -.56184E-2
MEAN_MOTION_DOT = -.1166171E-1
MEAN_MOTION_DDOT = 0

CCSDS_OMM_VERS = 2.0
CREATION_DATE  = 
ORIGINATOR     = 

OBJECT_NAME    = STARLINK-35723
OBJECT_ID      = 2025-244F
CENTER_NAME    = EARTH
REF_FRAME      = TEME
TIME_SYSTEM    = UTC
MEAN_ELEMENT_THEORY = SGP/SGP4

EPOCH          = 2025-11-06T20:00:03.000384
MEAN_MOTION    = 15.84389450
ECCENTRICITY   = .0000855
INCLINATION    = 53.1541
RA_OF_ASC_NODE = 87.5520
ARG_OF_PERICENTER = 51.0116
MEAN_ANOMALY   = 243.9129

EPHEMERIS_TYPE = 0
CLASSIFICATION_TYPE = U
NORAD_CAT_ID   = 66211
ELEMENT_SET_NO = 999
REV_AT_EPOCH   = 249
BSTAR          = -.56819E-2
MEAN_MOTION_DOT = -.1180664E-1
MEAN_MOTION_DDOT = 0

